ORBCOMM FM37            
1 33064U 08031E   25142.64031609  .00001422  00000+0  21528-3 0  9990
2 33064  48.4395 105.0762 0005847 267.4977 262.7077 14.79687131910264
ORBCOMM FM40            
1 33065U 08031F   25142.59116339  .00001924  00000+0  26732-3 0  9998
2 33065  48.4408  89.7718 0006959 278.8048 251.4050 14.81915180910367
VESSELSAT 1             
1 37840U 11058C   25142.64711015  .00000357  00000+0  50211-4 0  9993
2 37840  19.9616 248.4337 0013516 265.8358  94.0501 14.11349707702926
ORBCOMM FM107           
1 40087U 14040B   25142.38297986  .00000574  00000+0  15968-3 0  9991
2 40087  47.0033 139.1325 0001097 215.7293 144.3519 14.58203415577377
ORBCOMM FM111           
1 40089U 14040D   25142.53910730  .00001632  00000+0  20738-3 0  9996
2 40089  47.0007 176.1760 0029478  68.1037 292.2990 14.86173932586415
ORBCOMM FM104           
1 40090U 14040E   25142.54881841  .00000364  00000+0  11858-3 0  9993
2 40090  47.0033 171.6496 0015358  87.3258 272.9385 14.56614297576886
